[{"OBJECT_NAME":"STARLINK-1434","OBJECT_ID":"2020-035BH","EPOCH":"2026-03-09T05:47:35.213856","MEAN_MOTION":15.26724568,"ECCENTRICITY":0.00053438,"INCLINATION":53.0547,"RA_OF_ASC_NODE":22.1128,"ARG_OF_PERICENTER":88.04,"MEAN_ANOMALY":272.121,"EPHEMERIS_TYPE":0,"CLASSIFICATION_TYPE":"U","NORAD_CAT_ID":45712,"ELEMENT_SET_NO":999,"REV_AT_EPOCH":31932,"BSTAR":0.0020295208,"MEAN_MOTION_DOT":0.00054112,"MEAN_MOTION_DDOT":0},{"OBJECT_NAME":"STARLINK-31162","OBJECT_ID":"2024-012E","EPOCH":"2026-03-09T08:02:33.299232","MEAN_MOTION":15.27589946,"ECCENTRICITY":0.00019066,"INCLINATION":43.0024,"RA_OF_ASC_NODE":167.0956,"ARG_OF_PERICENTER":282.4896,"MEAN_ANOMALY":77.5743,"EPHEMERIS_TYPE":0,"CLASSIFICATION_TYPE":"U","NORAD_CAT_ID":58791,"ELEMENT_SET_NO":999,"REV_AT_EPOCH":12118,"BSTAR":-1.2837709e-5,"MEAN_MOTION_DOT":-6.16e-6,"MEAN_MOTION_DDOT":0}]
